#dP2024  6  6 12  0  0.00000000      96 __u+U IGS20 EXT  IAC
## 2317 388800.00000000   900.00000000 60467 0.5000000000000
+   54   G02G03G04G05G06G07G08G09G10G11G12G13G14G15G16G17G18
+        G19G20G21G22G23G24G25G26G27G28G29G30G31G32R01R02R03
+        R04R05R07R08R09R11R12R13R14R15R16R17R18R19R20R21R22
+        R24R25R26  0  0  0  0  0  0  0  0  0  0  0  0  0  0
+          0  0  0  0  0  0  0  0  0  0  0  0  0  0  0  0  0
++         8  7  9  7  7  9  7  7  7  7  6  9  7 10  7  7  7
++         6  7  8  7  9  7  7  9  8  9  8  7  6  9  9  8  9
++         7  7  8  9  8  8  8  8  8  9  7  8  8  8  9  8  9
++         8  7 10  0  0  0  0  0  0  0  0  0  0  0  0  0  0
++         0  0  0  0  0  0  0  0  0  0  0  0  0  0  0  0  0
%c M  cc GPS ccc cccc cccc cccc cccc ccccc ccccc ccccc ccccc
%c cc cc ccc ccc cccc cccc cccc cccc ccccc ccccc ccccc ccccc
%f  0.0000000  0.000000000  0.00000000000  0.000000000000000
%f  0.0000000  0.000000000  0.00000000000  0.000000000000000
%i    0    0    0    0      0      0      0      0         0
%i    0    0    0    0      0      0      0      0         0
/* IAC                                ULTRA-RAPID PREDICTION
/* S/V CLOCKS ARE ALIGNED TO GNSS TIME                      
/* G:C1WC2W R:C1PC2P E:C1XC5X C:C2IC6I J:C1CC2S             
/* PCV:IGS20_2315 OL/AL:FES2004  NONE     YN ORB:CoN CLK:CoN
*  2024 06 06 17 30  0.00000000
PG02  19821.269383  13772.521369 -10933.557922   -422.612583
PG03  12275.619154  18760.255178  14181.001285    400.828585
PG04  13246.602308   8615.178980  21385.207491    377.504745
PG05  -5465.758267 -25941.414782   -384.868398   -175.383832
PG06  15011.545544  -8316.916495  20362.978754    233.174728
PG07  25434.775356   5347.551336  -6029.948765   -100.898903
PG08   3959.099287  16063.616225 -20800.556998    216.831178
PG09  21093.003537  -3267.496201  15757.961501    224.620660
PG10 -11285.677394  13234.629545 -19763.732078    -37.313136
PG11   1125.480401 -15712.874041  21414.767069   -679.670786
PG12 -10353.605757 -20952.883163  12383.282049   -511.840163
PG13   6134.316152 -18228.516488 -18421.044338    656.056204
PG14  13852.113067  -9158.274712 -20651.600128    419.038361
PG15  -6129.074613 -15964.971911 -20783.334512    167.237038
PG16    227.028338  26204.858876   2057.468333   -271.558415
PG17  22850.499533 -13130.322019  -3521.222376    698.203102
PG18 -25085.973133  -4721.434606  -7690.893906   -621.394551
PG19  19789.317050 -16644.626177   4876.689151    492.672636
PG20   -647.084680 -24590.195185  10270.614581    374.122889
PG21  15908.089448  15445.375378 -14901.311802    117.105252
PG22  10498.748669 -17691.352564 -16541.442682    -23.809520
PG23 -14952.240124     45.823788 -21941.546228    243.893603
PG24 -17779.095355 -15277.682110 -13289.374631   -475.821721
PG25 -15109.157661 -11941.969145  18065.709760    496.954969
PG26  -6439.725921  20790.901575  14817.884249    141.275108
PG27  -7561.178690  20132.342692 -15593.360722    -27.223105
PG28 -17087.125226   7839.998076  18751.016093   -277.034043
PG29 -19890.278651   -979.491202  17580.081159   -595.388731
PG30  21354.623892  -3787.473943 -15357.580067   -378.538832
PG31  -6791.727749  13700.595336  21510.720474   -227.535032
PG32 -21254.624089  15599.928820  -1924.499330   -616.957508
PR01  -7489.574030  -8830.447405 -22724.281194     87.625356
PR02 -14917.891268   7856.925338 -19069.713004    -23.186968
PR03 -14269.210665  20622.508173  -4460.319464    101.564308
PR04  -6161.431769  21565.136715  12173.742213    239.893743
PR05   5398.842832  11115.256205  22325.409146    132.680147
PR07  14131.583844 -20927.934614   3814.016490     83.997887
PR08   5852.716676 -21591.646703 -12222.313611     -4.660075
PR09  14869.513405   4959.674847 -20128.736018    190.751304
PR11  -5693.305713 -21341.633636 -12728.101023     22.272283
PR12 -15096.135840 -19522.877932   6501.565794     41.005012
PR13 -15270.670501  -7702.578270  18915.482030    -48.109164
PR14  -5581.183338  11550.607187  22067.582620     26.554732
PR15   6534.589016  21914.323616  11335.890854     79.081543
PR16  15078.391296  19631.682169  -6225.891114     26.241518
PR17 -17049.219720   7847.748767 -17294.684360     93.479852
PR18   -130.849215  10510.914767 -23232.483057    145.728747
PR19  15133.867651   8976.212929 -18471.770657   -279.344952
PR20  25503.555533   1017.451069    516.549094   -114.033161
PR21  17266.554671  -7565.335247  17162.166545   -107.051564
PR22   -826.653897 -10958.307175  23040.436683    105.631716
PR24 -25493.209889    374.445158  -1048.419835    -58.796456
PR25  17066.194500  -7508.137218  17397.807241    -33.071371
PR26   6492.594773 -21976.398836 -11155.044034     -6.866093
*  2024 06 06 17 45  0.00000000
PG02  18376.264456  13589.987803 -13297.983095   -422.606324
PG03  12399.436582  20266.597295  11843.896114    400.845204
PG04  11336.536022  10171.368613  21784.171620    377.512102
PG05  -5208.819770 -25857.338322   2494.855311   -175.385042
PG06  17078.537173  -7471.685420  19023.228673    233.156062
PG07  25902.349985   5780.101052  -3289.365053   -100.887902
PG08   2176.112133  17542.581766 -19802.818292    216.848072
PG09  19775.496163  -1860.920285  17576.083094    224.633675
PG10 -11800.476593  10920.438381 -20864.297445    -37.320131
PG11   3419.736923 -14808.037749  21808.037152   -679.678353
PG12 -10286.702385 -22282.894294   9934.695112   -511.843038
PG13   7880.346100 -19167.743003 -16682.277792    656.058678
PG14  14305.758033  -6786.231773 -21267.120916    419.046597
PG15  -4583.691697 -17586.019948 -19810.107861    167.240821
PG16    -99.641056  25793.924250   4905.180437   -271.549141
PG17  22498.131782 -12589.164467  -6310.078177    698.198596
PG18 -25691.331561  -5155.136843  -4941.491657   -621.399189
PG19  20283.664471 -16664.131407   2019.444676    492.677469
PG20     17.652203 -23450.362186  12674.923705    374.122521
PG21  14082.641187  15111.856309 -16804.465883    117.103110
PG22  10834.173177 -15660.109594 -18218.282807    -23.814111
PG23 -15447.147613  -2386.397213 -21481.947267    243.901927
PG24 -16206.553314 -15105.223407 -15362.799963   -475.824249
PG25 -15352.048998 -13958.752458  16390.950212    496.955473
PG26  -7163.264660  19070.526172  16696.892210    141.269618
PG27  -8928.453321  21046.164924 -13441.204131    -27.224447
PG28 -19002.230147   7079.176547  17142.576549   -277.049392
PG29 -18261.082671  -2316.457222  19137.792779   -595.387272
PG30  22840.621224  -3014.089751 -13295.075122   -378.533370
PG31  -9116.341665  12804.313813  21239.193949   -227.534914
PG32 -21121.922451  15130.902801  -4760.128593   -616.956668
PR01  -6293.717340 -11316.785567 -21970.969588     87.626327
PR02 -13664.065223   5730.232620 -20698.642538    -23.186976
PR03 -13782.014389  20031.871519  -7571.150150    101.564743
PR04  -6654.420724  22802.508570   9316.127360    239.895285
PR05   4158.451820  13500.279970  21248.012062    132.680654
PR07  13679.136069 -20424.169583   6941.660527     83.998641
PR08   6357.611450 -22843.547329  -9380.761957     -4.660546
PR09  16239.051858   6906.199181 -18434.130409    190.753210
PR11  -4854.476149 -19823.153233 -15275.287488     22.271126
PR12 -15530.627986 -19964.186460   3371.965778     41.005397
PR13 -16543.294677  -9513.949900  16916.372414    -48.109538
PR14  -7054.021388   9217.909592  22732.074028     26.554724
PR15   5793.821133  20538.053799  14005.657869     79.081189
PR16  15517.392236  20034.102615  -3079.641389     26.241826
PR17 -19036.581137   8042.685810 -14980.536939     93.482875
PR18  -2989.466759  10570.622386 -23008.572938    145.730385
PR19  12742.947763   8820.925805 -20264.638355   -279.346250
PR20  25370.703483    792.165040  -2723.069081   -114.033713
PR21  19241.333897  -7749.025292  14818.730596   -107.054458
PR22   2007.488794 -10935.663099  22979.312758    105.628278
PR24 -25421.355018    526.688422   2164.177408    -58.797781
PR25  19074.868387  -7588.762137  15126.631552    -33.099495
PR26   6921.545119 -23107.551687  -8232.482444     -6.865405
EOF
